{"type": "FeatureCollection", "features": [ {"type": "Feature", "properties": {"norad_id": 30596, "name": "FENGYUN 1C DEB", "group": "fengyun-1c-debris", "lat": -76.91299599380295, "lon": 125.0374989472594, "alt_km": 628.4369578209362, "timestamp": "2025-12-12T20:43:07.312497+00:00", "meta": {"OBJECT_NAME": "FENGYUN 1C DEB", "OBJECT_ID": "1999-025AMB", "EPOCH": "2025-12-12T06:11:33.986400", "MEAN_MOTION": 14.34359785, "ECCENTRICITY": 0.02472959, "INCLINATION": 98.4134, "RA_OF_ASC_NODE": 343.9904, "ARG_OF_PERICENTER": 290.5303, "MEAN_ANOMALY": 87.223, "EPHEMERIS_TYPE": 0, "CLASSIFICATION_TYPE": "U", "NORAD_CAT_ID": 30596, "ELEMENT_SET_NO": 999, "REV_AT_EPOCH": 98554, "BSTAR": 0.00064545031, "MEAN_MOTION_DOT": 2.508e-05, "MEAN_MOTION_DDOT": 0}, "tle": {"line1": "1 30596U 99025AMB 25346.25803225  .00002508  00000+0  64545-3 0  9996", "line2": "2 30596  98.4134 343.9904 0247295 290.5303  87.2230 14.34359785985549"}}, "geometry": {"type": "Point", "coordinates": [125.0374989472594, -76.91299599380295]}}, {"type": "Feature", "properties": {"norad_id": 30597, "name": "FENGYUN 1C DEB", "group": "fengyun-1c-debris", "lat": 16.131263022930376, "lon": 105.9519851821723, "alt_km": 559.6033252694633, "timestamp": "2025-12-12T20:43:07.312507+00:00", "meta": {"OBJECT_NAME": "FENGYUN 1C DEB", "OBJECT_ID": "1999-025AMC", "EPOCH": "2025-12-12T02:17:18.481920", "MEAN_MOTION": 14.9233571, "ECCENTRICITY": 0.00451273, "INCLINATION": 98.939, "RA_OF_ASC_NODE": 282.472, "ARG_OF_PERICENTER": 165.0802, "MEAN_ANOMALY": 195.1756, "EPHEMERIS_TYPE": 0, "CLASSIFICATION_TYPE": "U", "NORAD_CAT_ID": 30597, "ELEMENT_SET_NO": 999, "REV_AT_EPOCH": 98527, "BSTAR": 0.0063427492, "MEAN_MOTION_DOT": 0.00066643, "MEAN_MOTION_DDOT": 0}, "tle": {"line1": "1 30597U 99025AMC 25346.09535280  .00066643  00000+0  63427-2 0  9999", "line2": "2 30597  98.9390 282.4720 0045127 165.0802 195.1756 14.92335710985270"}}, "geometry": {"type": "Point", "coordinates": [105.9519851821723, 16.131263022930376]}}, {"type": "Feature", "properties": {"norad_id": 30599, "name": "FENGYUN 1C DEB", "group": "fengyun-1c-debris", "lat": -34.26377686630244, "lon": 172.56320602207137, "alt_km": 968.1133937404593, "timestamp": "2025-12-12T20:43:07.312518+00:00", "meta": {"OBJECT_NAME": "FENGYUN 1C DEB", "OBJECT_ID": "1999-025AME", "EPOCH": "2025-12-11T23:23:49.149024", "MEAN_MOTION": 14.1968506, "ECCENTRICITY": 0.030237, "INCLINATION": 98.6043, "RA_OF_ASC_NODE": 357.6186, "ARG_OF_PERICENTER": 346.9957, "MEAN_ANOMALY": 12.3545, "EPHEMERIS_TYPE": 0, "CLASSIFICATION_TYPE": "U", "NORAD_CAT_ID": 30599, "ELEMENT_SET_NO": 999, "REV_AT_EPOCH": 97156, "BSTAR": 0.0011904, "MEAN_MOTION_DOT": 3.933e-05, "MEAN_MOTION_DDOT": 0}, "tle": {"line1": "1 30599U 99025AME 25345.97487441  .00003933  00000+0  11904-2 0  9998", "line2": "2 30599  98.6043 357.6186 0302370 346.9957  12.3545 14.19685060971560"}}, "geometry": {"type": "Point", "coordinates": [172.56320602207137, -34.26377686630244]}}, {"type": "Feature", "properties": {"norad_id": 30600, "name": "FENGYUN 1C DEB", "group": "fengyun-1c-debris", "lat": -40.24810488553544, "lon": -61.222773685017174, "alt_km": 795.0002762157756, "timestamp": "2025-12-12T20:43:07.312528+00:00", "meta": {"OBJECT_NAME": "FENGYUN 1C DEB", "OBJECT_ID": "1999-025AMF", "EPOCH": "2025-12-11T19:19:12.330048", "MEAN_MOTION": 14.07471877, "ECCENTRICITY": 0.03279243, "INCLINATION": 98.387, "RA_OF_ASC_NODE": 290.6185, "ARG_OF_PERICENTER": 250.0823, "MEAN_ANOMALY": 106.4744, "EPHEMERIS_TYPE": 0, "CLASSIFICATION_TYPE": "U", "NORAD_CAT_ID": 30600, "ELEMENT_SET_NO": 999, "REV_AT_EPOCH": 94419, "BSTAR": 0.0053072787, "MEAN_MOTION_DOT": 0.00014603, "MEAN_MOTION_DDOT": 0}, "tle": {"line1": "1 30600U 99025AMF 25345.80500382  .00014603  00000+0  53073-2 0  9992", "line2": "2 30600  98.3870 290.6185 0327924 250.0823 106.4744 14.07471877944193"}}, "geometry": {"type": "Point", "coordinates": [-61.222773685017174, -40.24810488553544]}}, {"type": "Feature", "properties": {"norad_id": 30602, "name": "FENGYUN 1C DEB", "group": "fengyun-1c-debris", "lat": 3.79515459615967, "lon": -99.8406341500537, "alt_km": 599.624170458369, "timestamp": "2025-12-12T20:43:07.312538+00:00", "meta": {"OBJECT_NAME": "FENGYUN 1C DEB", "OBJECT_ID": "1999-025AMH", "EPOCH": "2025-12-12T06:47:38.383296", "MEAN_MOTION": 14.91165802, "ECCENTRICITY": 0.00106932, "INCLINATION": 99.0325, "RA_OF_ASC_NODE": 260.1005, "ARG_OF_PERICENTER": 121.6788, "MEAN_ANOMALY": 9.5054, "EPHEMERIS_TYPE": 0, "CLASSIFICATION_TYPE": "U", "NORAD_CAT_ID": 30602, "ELEMENT_SET_NO": 999, "REV_AT_EPOCH": 97798, "BSTAR": 0.011500977, "MEAN_MOTION_DOT": 0.00116114, "MEAN_MOTION_DDOT": 0}, "tle": {"line1": "1 30602U 99025AMH 25346.28308314  .00116114  00000+0  11501-1 0  9997", "line2": "2 30602  99.0325 260.1005 0010693 121.6788   9.5054 14.91165802977987"}}, "geometry": {"type": "Point", "coordinates": [-99.8406341500537, 3.79515459615967]}}, {"type": "Feature", "properties": {"norad_id": 30603, "name": "FENGYUN 1C DEB", "group": "fengyun-1c-debris", "lat": -76.0406767354763, "lon": 153.24390635558922, "alt_km": 875.668657429982, "timestamp": "2025-12-12T20:43:07.312549+00:00", "meta": {"OBJECT_NAME": "FENGYUN 1C DEB", "OBJECT_ID": "1999-025AMJ", "EPOCH": "2025-12-12T00:40:00.381216", "MEAN_MOTION": 13.84117802, "ECCENTRICITY": 0.0183351, "INCLINATION": 98.4099, "RA_OF_ASC_NODE": 9.0175, "ARG_OF_PERICENTER": 207.2842, "MEAN_ANOMALY": 208.9793, "EPHEMERIS_TYPE": 0, "CLASSIFICATION_TYPE": "U", "NORAD_CAT_ID": 30603, "ELEMENT_SET_NO": 999, "REV_AT_EPOCH": 94866, "BSTAR": 0.0018718, "MEAN_MOTION_DOT": 2.337e-05, "MEAN_MOTION_DDOT": 0}, "tle": {"line1": "1 30603U 99025AMJ 25346.02778219  .00002337  00000+0  18718-2 0  9994", "line2": "2 30603  98.4099   9.0175 0183351 207.2842 208.9793 13.84117802948667"}}, "geometry": {"type": "Point", "coordinates": [153.24390635558922, -76.0406767354763]}}, {"type": "Feature", "properties": {"norad_id": 30604, "name": "FENGYUN 1C DEB", "group": "fengyun-1c-debris", "lat": -60.841878523354936, "lon": 37.05837400015042, "alt_km": 762.1022869611543, "timestamp": "2025-12-12T20:43:07.312559+00:00", "meta": {"OBJECT_NAME": "FENGYUN 1C DEB", "OBJECT_ID": "1999-025AMK", "EPOCH": "2025-12-11T13:40:23.600640", "MEAN_MOTION": 14.23607049, "ECCENTRICITY": 0.02097596, "INCLINATION": 98.4028, "RA_OF_ASC_NODE": 20.4587, "ARG_OF_PERICENTER": 10.2874, "MEAN_ANOMALY": 144.3112, "EPHEMERIS_TYPE": 0, "CLASSIFICATION_TYPE": "U", "NORAD_CAT_ID": 30604, "ELEMENT_SET_NO": 999, "REV_AT_EPOCH": 97822, "BSTAR": 0.00043839017, "MEAN_MOTION_DOT": 1.208e-05, "MEAN_MOTION_DDOT": 0}, "tle": {"line1": "1 30604U 99025AMK 25345.56971760  .00001208  00000+0  43839-3 0  9998", "line2": "2 30604  98.4028  20.4587 0209759  10.2874 144.3112 14.23607049978226"}}, "geometry": {"type": "Point", "coordinates": [37.05837400015042, -60.841878523354936]}}, {"type": "Feature", "properties": {"norad_id": 30606, "name": "FENGYUN 1C DEB", "group": "fengyun-1c-debris", "lat": -52.75174956519041, "lon": 7.808093511339632, "alt_km": 856.9239328130243, "timestamp": "2025-12-12T20:43:07.312569+00:00", "meta": {"OBJECT_NAME": "FENGYUN 1C DEB", "OBJECT_ID": "1999-025AMM", "EPOCH": "2025-12-11T07:10:21.480672", "MEAN_MOTION": 14.5761625, "ECCENTRICITY": 0.02141841, "INCLINATION": 98.0965, "RA_OF_ASC_NODE": 355.4946, "ARG_OF_PERICENTER": 141.6401, "MEAN_ANOMALY": 240.1409, "EPHEMERIS_TYPE": 0, "CLASSIFICATION_TYPE": "U", "NORAD_CAT_ID": 30606, "ELEMENT_SET_NO": 999, "REV_AT_EPOCH": 99221, "BSTAR": 0.00090570554, "MEAN_MOTION_DOT": 5.611e-05, "MEAN_MOTION_DDOT": 0}, "tle": {"line1": "1 30606U 99025AMM 25345.29885973  .00005611  00000+0  90571-3 0  9997", "line2": "2 30606  98.0965 355.4946 0214184 141.6401 240.1409 14.57616250992217"}}, "geometry": {"type": "Point", "coordinates": [7.808093511339632, -52.75174956519041]}}, {"type": "Feature", "properties": {"norad_id": 30608, "name": "FENGYUN 1C DEB", "group": "fengyun-1c-debris", "lat": 20.16177253510347, "lon": 46.29950906091505, "alt_km": 807.4655898845558, "timestamp": "2025-12-12T20:43:07.312580+00:00", "meta": {"OBJECT_NAME": "FENGYUN 1C DEB", "OBJECT_ID": "1999-025AMP", "EPOCH": "2025-12-12T04:04:01.972992", "MEAN_MOTION": 14.28471231, "ECCENTRICITY": 0.00160116, "INCLINATION": 98.7103, "RA_OF_ASC_NODE": 48.834, "ARG_OF_PERICENTER": 180.6301, "MEAN_ANOMALY": 234.0467, "EPHEMERIS_TYPE": 0, "CLASSIFICATION_TYPE": "U", "NORAD_CAT_ID": 30608, "ELEMENT_SET_NO": 999, "REV_AT_EPOCH": 97431, "BSTAR": 0.001797787, "MEAN_MOTION_DOT": 4.465e-05, "MEAN_MOTION_DDOT": 0}, "tle": {"line1": "1 30608U 99025AMP 25346.16946728  .00004465  00000+0  17978-2 0  9997", "line2": "2 30608  98.7103  48.8340 0016011 180.6301 234.0467 14.28471231974315"}}, "geometry": {"type": "Point", "coordinates": [46.29950906091505, 20.16177253510347]}}, {"type": "Feature", "properties": {"norad_id": 30609, "name": "FENGYUN 1C DEB", "group": "fengyun-1c-debris", "lat": -78.14028402945554, "lon": 37.593583825079854, "alt_km": 937.2156281083453, "timestamp": "2025-12-12T20:43:07.312590+00:00", "meta": {"OBJECT_NAME": "FENGYUN 1C DEB", "OBJECT_ID": "1999-025AMQ", "EPOCH": "2025-12-06T17:08:31.037568", "MEAN_MOTION": 14.11134801, "ECCENTRICITY": 0.01189523, "INCLINATION": 98.5675, "RA_OF_ASC_NODE": 257.6035, "ARG_OF_PERICENTER": 69.9172, "MEAN_ANOMALY": 291.4756, "EPHEMERIS_TYPE": 0, "CLASSIFICATION_TYPE": "U", "NORAD_CAT_ID": 30609, "ELEMENT_SET_NO": 999, "REV_AT_EPOCH": 95643, "BSTAR": 0.0036904109, "MEAN_MOTION_DOT": 7.069e-05, "MEAN_MOTION_DDOT": 0}, "tle": {"line1": "1 30609U 99025AMQ 25340.71424812  .00007069  00000+0  36904-2 0  9991", "line2": "2 30609  98.5675 257.6035 0118952  69.9172 291.4756 14.11134801956433"}}, "geometry": {"type": "Point", "coordinates": [37.593583825079854, -78.14028402945554]}}]}